[{"OBJECT_NAME":"QIANFAN-30","OBJECT_ID":"2024-185M","EPOCH":"2026-03-09T22:48:50.742720","MEAN_MOTION":13.50020364,"ECCENTRICITY":0.00089916,"INCLINATION":88.9741,"RA_OF_ASC_NODE":71.8387,"ARG_OF_PERICENTER":133.172,"MEAN_ANOMALY":227.0184,"EPHEMERIS_TYPE":0,"CLASSIFICATION_TYPE":"U","NORAD_CAT_ID":61563,"ELEMENT_SET_NO":999,"REV_AT_EPOCH":7983,"BSTAR":0.00030112245,"MEAN_MOTION_DOT":2.04e-6,"MEAN_MOTION_DDOT":0},{"OBJECT_NAME":"COSMOS 839 DEB","OBJECT_ID":"1976-067Q","EPOCH":"2026-03-09T09:43:22.153728","MEAN_MOTION":12.24933458,"ECCENTRICITY":0.06712762,"INCLINATION":65.7867,"RA_OF_ASC_NODE":226.2298,"ARG_OF_PERICENTER":259.6194,"MEAN_ANOMALY":118.1094,"EPHEMERIS_TYPE":0,"CLASSIFICATION_TYPE":"U","NORAD_CAT_ID":10439,"ELEMENT_SET_NO":999,"REV_AT_EPOCH":22073,"BSTAR":0.00028027395,"MEAN_MOTION_DOT":9.0e-8,"MEAN_MOTION_DDOT":0}]
